{"features":[{"geometry":{"coordinates":[[[116.38,39.89],[116.4,39.89],[116.4,39.91],[116.38,39.91],[116.38,39.89]],[[116.386,39.896],[116.394,39.896],[116.394,39.904],[116.386,39.904],[116.386,39.896]]],"type":"Polygon"},"id":1,"properties":{"AREA":12.34,"CODE":"BJDC01","INNER":true,"NAME":"东城区","UPD":"2026-03-15"},"type":"Feature"},{"geometry":{"coordinates":[[[116.42,39.89],[116.44,39.89],[116.44,39.91],[116.42,39.91],[116.42,39.89]]],"type":"Polygon"},"id":2,"properties":{"AREA":56.78,"CODE":"BJXC02","INNER":false,"NAME":"西城区","UPD":"2026-04-01"},"type":"Feature"}],"type":"FeatureCollection"}